CENTISPACE-1 OBJECT J   
1 68358U 26060J   26094.30607439  .00000132  00000+0  50085-4 0  9994
2 68358  54.9834 337.0781 0014514 331.6144  28.4064 14.75288053  1874
CENTISPACE-1 OBJECT K   
1 68359U 26060K   26094.03420010  .00000155  00000+0  53351-4 0  9997
2 68359  54.9798 338.1795 0015602 332.5681  27.4493 14.75504026  1838
RASSVET-3 1             
1 68360U 26061A   26094.24567440  .00152397  70411-5  50065-3 0  9995
2 68360  82.2952  95.6460 0024998  32.1576 328.1213 15.89876049  1838
RASSVET-3 2             
1 68361U 26061B   26094.24769499  .00083743  12902-5  28504-3 0  9996
2 68361  82.2967  95.6501 0026357  31.6778 328.6072 15.89076812  1838
RASSVET-3 3             
1 68362U 26061C   26094.24753987  .00082450  12161-5  28070-3 0  9991
2 68362  82.2966  95.6495 0026170  31.5508 328.7325 15.89080328  1832
RASSVET-3 4             
1 68363U 26061D   26094.24738709  .00082725  12321-5  28138-3 0  9995
2 68363  82.2967  95.6496 0026213  31.4198 328.8633 15.89096130  1838
RASSVET-3 5             
1 68364U 26061E   26094.24725464  .00082221  12039-5  27939-3 0  9995
2 68364  82.2966  95.6490 0026171  31.4640 328.8190 15.89117169  1831
RASSVET-3 6             
1 68365U 26061F   26094.24687721  .00082343  12135-5  27834-3 0  9995
2 68365  82.2967  95.6486 0026008  31.6628 328.6201 15.89228587  1833
RASSVET-3 7             
1 68366U 26061G   26094.24703707  .00081554  11669-5  27681-3 0  9993
2 68366  82.2967  95.6489 0025990  31.5083 328.7738 15.89147158  1830
RASSVET-3 8             
1 68367U 26061H   26094.24712710  .00082311  12094-5  27965-3 0  9998
2 68367  82.2966  95.6488 0025973  31.3438 328.9375 15.89129789  1831
RASSVET-3 9             
1 68368U 26061J   26094.24585677  .00150458  68269-5  49541-3 0  9996
2 68368  82.2957  95.6464 0025169  31.7667 328.5117 15.89823008  1836
RASSVET-3 10            
1 68369U 26061K   26094.24679753  .00083621  12859-5  28348-3 0  9999
2 68369  82.2967  95.6483 0025854  31.3682 328.9125 15.89179577  1831
RASSVET-3 11            
1 68370U 26061L   26094.24647498  .00081521  11669-5  27597-3 0  9992
2 68370  82.2966  95.6478 0025600  31.3324 328.9466 15.89216943  1835
RASSVET-3 12            
1 68371U 26061M   26094.24620433  .00083155  12617-5  28065-3 0  9993
2 68371  82.2966  95.6475 0025563  31.2512 329.0272 15.89279922  1832
RASSVET-3 13            
1 68372U 26061N   26094.24603478  .00081984  11948-5  27680-3 0  9990
2 68372  82.2966  95.6472 0025346  31.1220 329.1546 15.89280932  1832
RASSVET-3 14            
1 68373U 26061P   26094.24559763  .00081783  11852-5  27505-3 0  9995
2 68373  82.2968  95.6469 0025356  30.8430 329.4325 15.89357343  1830
