[{"OBJECT_NAME":"CENTISPACE-1 OBJECT J","OBJECT_ID":"2026-060J","EPOCH":"2026-04-04T07:20:44.827296","MEAN_MOTION":14.75288053,"ECCENTRICITY":0.00145147,"INCLINATION":54.9834,"RA_OF_ASC_NODE":337.0781,"ARG_OF_PERICENTER":331.6144,"MEAN_ANOMALY":28.4064,"EPHEMERIS_TYPE":0,"CLASSIFICATION_TYPE":"U","NORAD_CAT_ID":68358,"ELEMENT_SET_NO":999,"REV_AT_EPOCH":187,"BSTAR":5.0084602e-5,"MEAN_MOTION_DOT":1.32e-6,"MEAN_MOTION_DDOT":0},{"OBJECT_NAME":"CENTISPACE-1 OBJECT K","OBJECT_ID":"2026-060K","EPOCH":"2026-04-04T00:49:14.888640","MEAN_MOTION":14.75504026,"ECCENTRICITY":0.00156027,"INCLINATION":54.9798,"RA_OF_ASC_NODE":338.1795,"ARG_OF_PERICENTER":332.5681,"MEAN_ANOMALY":27.4493,"EPHEMERIS_TYPE":0,"CLASSIFICATION_TYPE":"U","NORAD_CAT_ID":68359,"ELEMENT_SET_NO":999,"REV_AT_EPOCH":183,"BSTAR":5.335102e-5,"MEAN_MOTION_DOT":1.55e-6,"MEAN_MOTION_DDOT":0},{"OBJECT_NAME":"RASSVET-3 1","OBJECT_ID":"2026-061A","EPOCH":"2026-04-04T05:53:46.268160","MEAN_MOTION":15.89876049,"ECCENTRICITY":0.0024998,"INCLINATION":82.2952,"RA_OF_ASC_NODE":95.646,"ARG_OF_PERICENTER":32.1576,"MEAN_ANOMALY":328.1213,"EPHEMERIS_TYPE":0,"CLASSIFICATION_TYPE":"U","NORAD_CAT_ID":68360,"ELEMENT_SET_NO":999,"REV_AT_EPOCH":183,"BSTAR":0.00050065289,"MEAN_MOTION_DOT":0.00152397,"MEAN_MOTION_DDOT":7.041136e-6},{"OBJECT_NAME":"RASSVET-3 2","OBJECT_ID":"2026-061B","EPOCH":"2026-04-04T05:56:40.847136","MEAN_MOTION":15.89076812,"ECCENTRICITY":0.00263571,"INCLINATION":82.2967,"RA_OF_ASC_NODE":95.6501,"ARG_OF_PERICENTER":31.6778,"MEAN_ANOMALY":328.6072,"EPHEMERIS_TYPE":0,"CLASSIFICATION_TYPE":"U","NORAD_CAT_ID":68361,"ELEMENT_SET_NO":999,"REV_AT_EPOCH":183,"BSTAR":0.00028504386,"MEAN_MOTION_DOT":0.00083743,"MEAN_MOTION_DDOT":1.290154e-6},{"OBJECT_NAME":"RASSVET-3 3","OBJECT_ID":"2026-061C","EPOCH":"2026-04-04T05:56:27.444768","MEAN_MOTION":15.89080328,"ECCENTRICITY":0.00261706,"INCLINATION":82.2966,"RA_OF_ASC_NODE":95.6495,"ARG_OF_PERICENTER":31.5508,"MEAN_ANOMALY":328.7325,"EPHEMERIS_TYPE":0,"CLASSIFICATION_TYPE":"U","NORAD_CAT_ID":68362,"ELEMENT_SET_NO":999,"REV_AT_EPOCH":183,"BSTAR":0.00028069651,"MEAN_MOTION_DOT":0.0008245,"MEAN_MOTION_DDOT":1.216051e-6},{"OBJECT_NAME":"RASSVET-3 4","OBJECT_ID":"2026-061D","EPOCH":"2026-04-04T05:56:14.244576","MEAN_MOTION":15.8909613,"ECCENTRICITY":0.00262139,"INCLINATION":82.2967,"RA_OF_ASC_NODE":95.6496,"ARG_OF_PERICENTER":31.4198,"MEAN_ANOMALY":328.8633,"EPHEMERIS_TYPE":0,"CLASSIFICATION_TYPE":"U","NORAD_CAT_ID":68363,"ELEMENT_SET_NO":999,"REV_AT_EPOCH":183,"BSTAR":0.00028138229,"MEAN_MOTION_DOT":0.00082725,"MEAN_MOTION_DDOT":1.232128e-6},{"OBJECT_NAME":"RASSVET-3 5","OBJECT_ID":"2026-061E","EPOCH":"2026-04-04T05:56:02.800896","MEAN_MOTION":15.89117169,"ECCENTRICITY":0.00261712,"INCLINATION":82.2966,"RA_OF_ASC_NODE":95.649,"ARG_OF_PERICENTER":31.464,"MEAN_ANOMALY":328.819,"EPHEMERIS_TYPE":0,"CLASSIFICATION_TYPE":"U","NORAD_CAT_ID":68364,"ELEMENT_SET_NO":999,"REV_AT_EPOCH":183,"BSTAR":0.00027939242,"MEAN_MOTION_DOT":0.00082221,"MEAN_MOTION_DDOT":1.203917e-6},{"OBJECT_NAME":"RASSVET-3 6","OBJECT_ID":"2026-061F","EPOCH":"2026-04-04T05:55:30.190944","MEAN_MOTION":15.89228587,"ECCENTRICITY":0.00260083,"INCLINATION":82.2967,"RA_OF_ASC_NODE":95.6486,"ARG_OF_PERICENTER":31.6628,"MEAN_ANOMALY":328.6201,"EPHEMERIS_TYPE":0,"CLASSIFICATION_TYPE":"U","NORAD_CAT_ID":68365,"ELEMENT_SET_NO":999,"REV_AT_EPOCH":183,"BSTAR":0.00027834166,"MEAN_MOTION_DOT":0.00082343,"MEAN_MOTION_DDOT":1.213533e-6},{"OBJECT_NAME":"RASSVET-3 7","OBJECT_ID":"2026-061G","EPOCH":"2026-04-04T05:55:44.002848","MEAN_MOTION":15.89147158,"ECCENTRICITY":0.00259902,"INCLINATION":82.2967,"RA_OF_ASC_NODE":95.6489,"ARG_OF_PERICENTER":31.5083,"MEAN_ANOMALY":328.7738,"EPHEMERIS_TYPE":0,"CLASSIFICATION_TYPE":"U","NORAD_CAT_ID":68366,"ELEMENT_SET_NO":999,"REV_AT_EPOCH":183,"BSTAR":0.00027681064,"MEAN_MOTION_DOT":0.00081554,"MEAN_MOTION_DDOT":1.166859e-6},{"OBJECT_NAME":"RASSVET-3 8","OBJECT_ID":"2026-061H","EPOCH":"2026-04-04T05:55:51.781440","MEAN_MOTION":15.89129789,"ECCENTRICITY":0.00259737,"INCLINATION":82.2966,"RA_OF_ASC_NODE":95.6488,"ARG_OF_PERICENTER":31.3438,"MEAN_ANOMALY":328.9375,"EPHEMERIS_TYPE":0,"CLASSIFICATION_TYPE":"U","NORAD_CAT_ID":68367,"ELEMENT_SET_NO":999,"REV_AT_EPOCH":183,"BSTAR":0.00027964551,"MEAN_MOTION_DOT":0.00082311,"MEAN_MOTION_DDOT":1.209429e-6},{"OBJECT_NAME":"RASSVET-3 9","OBJECT_ID":"2026-061J","EPOCH":"2026-04-04T05:54:02.024928","MEAN_MOTION":15.89823008,"ECCENTRICITY":0.00251696,"INCLINATION":82.2957,"RA_OF_ASC_NODE":95.6464,"ARG_OF_PERICENTER":31.7667,"MEAN_ANOMALY":328.5117,"EPHEMERIS_TYPE":0,"CLASSIFICATION_TYPE":"U","NORAD_CAT_ID":68368,"ELEMENT_SET_NO":999,"REV_AT_EPOCH":183,"BSTAR":0.00049541407,"MEAN_MOTION_DOT":0.00150458,"MEAN_MOTION_DDOT":6.826904e-6},{"OBJECT_NAME":"RASSVET-3 10","OBJECT_ID":"2026-061K","EPOCH":"2026-04-04T05:55:23.306592","MEAN_MOTION":15.89179577,"ECCENTRICITY":0.00258543,"INCLINATION":82.2967,"RA_OF_ASC_NODE":95.6483,"ARG_OF_PERICENTER":31.3682,"MEAN_ANOMALY":328.9125,"EPHEMERIS_TYPE":0,"CLASSIFICATION_TYPE":"U","NORAD_CAT_ID":68369,"ELEMENT_SET_NO":999,"REV_AT_EPOCH":183,"BSTAR":0.00028347916,"MEAN_MOTION_DOT":0.00083621,"MEAN_MOTION_DDOT":1.285949e-6},{"OBJECT_NAME":"RASSVET-3 11","OBJECT_ID":"2026-061L","EPOCH":"2026-04-04T05:54:55.438272","MEAN_MOTION":15.89216943,"ECCENTRICITY":0.00256003,"INCLINATION":82.2966,"RA_OF_ASC_NODE":95.6478,"ARG_OF_PERICENTER":31.3324,"MEAN_ANOMALY":328.9466,"EPHEMERIS_TYPE":0,"CLASSIFICATION_TYPE":"U","NORAD_CAT_ID":68370,"ELEMENT_SET_NO":999,"REV_AT_EPOCH":183,"BSTAR":0.00027596772,"MEAN_MOTION_DOT":0.00081521,"MEAN_MOTION_DDOT":1.166852e-6},{"OBJECT_NAME":"RASSVET-3 12","OBJECT_ID":"2026-061M","EPOCH":"2026-04-04T05:54:32.054112","MEAN_MOTION":15.89279922,"ECCENTRICITY":0.00255639,"INCLINATION":82.2966,"RA_OF_ASC_NODE":95.6475,"ARG_OF_PERICENTER":31.2512,"MEAN_ANOMALY":329.0272,"EPHEMERIS_TYPE":0,"CLASSIFICATION_TYPE":"U","NORAD_CAT_ID":68371,"ELEMENT_SET_NO":999,"REV_AT_EPOCH":183,"BSTAR":0.00028065169,"MEAN_MOTION_DOT":0.00083155,"MEAN_MOTION_DDOT":1.261669e-6},{"OBJECT_NAME":"RASSVET-3 13","OBJECT_ID":"2026-061N","EPOCH":"2026-04-04T05:54:17.404992","MEAN_MOTION":15.89280932,"ECCENTRICITY":0.00253462,"INCLINATION":82.2966,"RA_OF_ASC_NODE":95.6472,"ARG_OF_PERICENTER":31.122,"MEAN_ANOMALY":329.1546,"EPHEMERIS_TYPE":0,"CLASSIFICATION_TYPE":"U","NORAD_CAT_ID":68372,"ELEMENT_SET_NO":999,"REV_AT_EPOCH":183,"BSTAR":0.00027680264,"MEAN_MOTION_DOT":0.00081984,"MEAN_MOTION_DDOT":1.19476e-6},{"OBJECT_NAME":"RASSVET-3 14","OBJECT_ID":"2026-061P","EPOCH":"2026-04-04T05:53:39.635232","MEAN_MOTION":15.89357343,"ECCENTRICITY":0.00253566,"INCLINATION":82.2968,"RA_OF_ASC_NODE":95.6469,"ARG_OF_PERICENTER":30.843,"MEAN_ANOMALY":329.4325,"EPHEMERIS_TYPE":0,"CLASSIFICATION_TYPE":"U","NORAD_CAT_ID":68373,"ELEMENT_SET_NO":999,"REV_AT_EPOCH":183,"BSTAR":0.00027504911,"MEAN_MOTION_DOT":0.00081783,"MEAN_MOTION_DDOT":1.185209e-6}]
